AUTCUBE 2               
1 43681U 18084K   26093.53954539  .00007283  00000+0  45753-3 0  9992
2 43681  98.0776 295.7543 0007742 300.3151  59.7310 15.09568994405661
METOP-C                 
1 43689U 18087A   26093.45712410  .00000217  00000+0  11894-3 0  9993
2 43689  98.6714 154.4034 0001815  66.2098 293.9270 14.21505775384211
ES'HAIL 2               
1 43700U 18090A   26092.54129520  .00000139  00000+0  00000+0 0  9990
2 43700   0.0166 228.1676 0001267 166.0138  17.4300  1.00276858 26912
MOHAMMED VI-B           
1 43717U 18095A   26093.52535469  .00001458  00000+0  21364-3 0  9990
2 43717  97.9383 166.8776 0001491  97.8465 262.2914 14.77087354397166
HYSIS                   
1 43719U 18096A   26093.50345453  .00002195  00000+0  30680-3 0  9993
2 43719  97.9900 160.8172 0001594  66.5895 293.5483 14.78624132396384
COSMOS 2530 (RODNIK-S *)
1 43751U 18097A   26093.51400208  .00000057  00000+0  33785-3 0  9995
2 43751  82.5088 268.6331 0019426 196.4342 163.6110 12.42879491333018
COSMOS 2531 (RODNIK-S *)
1 43752U 18097B   26093.53815440  .00000049  00000+0  27943-3 0  9996
2 43752  82.5134 269.6518 0016317 215.2395 144.7607 12.42910866333038
COSMOS 2532 (RODNIK-S *)
1 43753U 18097C   26093.48573376  .00000091  00000+0  58439-3 0  9991
2 43753  82.5078 268.5038 0017643 217.8031 142.1810 12.42907616332990
MINXSS-2                
1 43758U 18099A   26093.19421673  .00058533  00000+0  13589-2 0  9998
2 43758  97.4584 167.5487 0008921 170.3774 189.7646 15.42133158402553
SIRION PATHFINDER-2     
1 43759U 18099B   26093.37520054  .00010027  00000+0  55739-3 0  9992
2 43759  97.4333 144.2178 0008681 188.5141 171.5945 15.13851230401306
AISTECHSAT 2            
1 43768U 18099L   26093.39092587  .00011029  00000+0  59892-3 0  9996
2 43768  97.4381 143.0724 0004750 177.5757 182.5499 15.14681020400952
FOX-1CLIFF (AO-95)      
1 43770U 18099N   26093.12220494  .00023561  00000+0  94177-3 0  9999
2 43770  97.4460 153.7122 0007698 246.6115 113.4314 15.25088191401775
2018-099Q               
1 43772U 18099Q   26093.14604335  .00184644  00000+0  19954-2 0  9992
2 43772  97.4250 169.6650 0001731 166.3745 193.7561 15.63009610402862
RANGE-A                 
1 43773U 18099R   26093.11662598  .00008883  00000+0  50982-3 0  9992
2 43773  97.4056 137.8954 0008929 241.8086 118.2243 15.12737647401145
SNUSAT-2                
1 43782U 18099AA  26093.08384204  .00017722  00000+0  80778-3 0  9991
2 43782  97.4140 147.6563 0010398 190.2174 169.8852 15.20665423401613
SNUGLITE                
1 43784U 18099AC  26093.40747009  .00023052  00000+0  90972-3 0  9995
2 43784  97.3952 148.4853 0003334 163.6338 196.5008 15.25541673401912
ITASAT                  
1 43786U 18099AE  26093.10039677  .00014459  00000+0  71068-3 0  9995
2 43786  97.4111 146.1330 0011372 251.4067 108.5933 15.18085670401511
EAGLET-I                
1 43790U 18099AJ  26093.10333554  .00008054  00000+0  46745-3 0  9999
2 43790  97.4313 144.7607 0009941 240.8595 119.1642 15.12358317400988
ESEO                    
1 43792U 18099AL  26093.33901264  .00003200  00000+0  23548-3 0  9999
2 43792  97.4040 133.9116 0011144 224.5924 135.4407 15.04007783400557
THEA                    
1 43796U 18099AQ  26093.43419580  .00032154  00000+0  10232-2 0  9994
2 43796  97.4497 162.5249 0008105 180.8348 179.2882 15.32492759401230
ASTROCAST 0.1           
1 43798U 18099AS  26093.16875109  .00057984  00000+0  12317-2 0  9993
2 43798  97.4415 169.5936 0006717 131.1403 229.0426 15.44800314402838
JY1SAT (JO-97)          
1 43803U 18099AX  26093.13440990  .00033234  00000+0  10985-2 0  9994
2 43803  97.4203 155.8195 0006604 165.3182 194.8252 15.31275054402135
SUOMI-100               
1 43804U 18099AY  26093.20146631  .00022909  00000+0  87124-3 0  9995
2 43804  97.4263 153.9434 0010635 176.9294 183.2012 15.26728836401970
AL-FARABI 2             
1 43805U 18099AZ  26093.17717196  .00379246  00000+0  21080-2 0  9999
2 43805  97.4026 170.5530 0003176 196.3165 163.8000 15.78455812403202
CENTAURI-1              
1 43809U 18099BD  26093.09077436  .00011587  00000+0  61213-3 0  9994
2 43809  97.4304 146.4346 0013408 223.9661 136.0506 15.15581023401126
GLOBAL-2                
1 43812U 18099BG  26093.11601847  .00006411  00000+0  41761-3 0  9996
2 43812  97.3645 132.7427 0007255  61.9596 298.2366 15.08236485400591
SEAHAWK-1               
1 43820U 18099BQ  26093.12967726  .00017939  00000+0  79717-3 0  9996
2 43820  97.4038 146.7982 0007982 201.4059 158.6844 15.21554631401110
SAUDISAT 5A             
1 43831U 18102A   26093.49271961  .00010405  00000+0  39119-3 0  9995
2 43831  97.3137 156.5284 0010834  46.7935 313.4207 15.27284617404272
SAUDISAT 5B             
1 43833U 18102C   26093.52510567  .00009891  00000+0  36863-3 0  9999
2 43833  97.3236 159.4957 0011564  48.3663 311.8565 15.27579178404391
2018-102D               
1 43834U 18102D   26093.48679118  .00072248  00000+0  93326-3 0  9996
2 43834  97.3457 179.7639 0003469 341.2013  18.9114 15.58719034405586
ISAT                    
1 43879U 18111D   26093.53534178  .00099189  00000+0  14887-2 0  9994
2 43879  97.5909  23.7003 0005466 170.0070 190.1293 15.54544420399531
UWE-4                   
1 43880U 18111E   26093.22353498  .00052545  00000+0  12388-2 0  9995
2 43880  97.5860  18.4325 0006553 219.5955 140.4813 15.41717974399219
D-STAR ONE (SPARROW)    
1 43881U 18111F   26092.33135046  .00118020  00000+0  15117-2 0  9998
2 43881  97.6119  27.0320 0002062 162.1721 197.9608 15.58781579399505
JILIN-1 09              
1 43943U 19005B   26093.53564994  .00010173  00000+0  47746-3 0  9995
2 43943  97.4705 189.1923 0002334  32.5032 327.6346 15.19834168397801
JILIN-1 10              
1 43946U 19005E   26093.53600723  .00012481  00000+0  50426-3 0  9992
2 43946  97.4740 192.4129 0008683 171.2723 188.8667 15.24862816397933
EGYPTSAT-A (MISRSAT-A)  
1 44047U 19008A   26093.52157193  .00000950  00000+0  15808-3 0  9998
2 44047  98.0104 159.3858 0001286 101.3162 258.8190 14.72331664382253
EMISAT                  
1 44078U 19018A   26093.49943683  .00000588  00000+0  18597-3 0  9991
2 44078  98.4724 152.6850 0019822  83.4929 276.8518 14.43640847369289
JILIN-1 GAOFEN 3A       
1 44312U 19032C   26093.35029450  .00022095  00000+0  73179-3 0  9994
2 44312  44.9754  48.2896 0004968 246.3627 113.6736 15.30976611376364
WT 1A                   
1 44315U 19032F   26092.63313808  .00523267  00000+0  17633-2 0  9999
2 44315  44.9700 296.4670 0013987 264.2464  95.6847 15.87849084377643
WT 1B                   
1 44316U 19032G   26093.46328824  .00022018  00000+0  85666-3 0  9996
2 44316  44.9686 108.3503 0009325 198.0048 162.0505 15.25671605375660
PROX-1                  
1 44339U 19036A   26093.50559839  .00022995  00000+0  23618-2 0  9994
2 44339  23.9949 252.4178 0005679 252.1836 107.8043 14.88832655362323
NPSAT1                  
1 44340U 19036B   26093.38973776  .00011782  00000+0  17211-2 0  9996
2 44340  24.0000 344.6379 0007772  87.3054 272.8331 14.73865914361441
FORMOSAT 7-3            
1 44343U 19036E   26092.89434460  .00009521  00000+0  56168-3 0  9999
2 44343  23.9999 336.5211 0001114  93.8771 266.1860 15.09211227371857
FORMOSAT 7-1            
1 44349U 19036L   26093.56009818  .00005254  00000+0  42883-3 0  9993
2 44349  23.9971 175.3831 0001046  46.6235 313.4353 14.96182574373464
FORMOSAT 7-4            
1 44350U 19036M   26093.51565045  .00005399  00000+0  44147-3 0  9994
2 44350  23.9982 237.7844 0001407  48.7481 311.3141 14.96176763372871
FORMOSAT 7-2            
1 44351U 19036N   26092.93778756  .00004943  00000+0  40198-3 0  9991
2 44351  23.9985 295.9936 0000861  48.2033 311.8541 14.96174820372303
FORMOSAT 7-6            
1 44353U 19036Q   26093.40475976  .00004972  00000+0  40444-3 0  9990
2 44353  23.9971 113.6660 0000772 323.8766  36.1682 14.96183251370608
FORMOSAT 7-5            
1 44358U 19036V   26093.24876438  .00005136  00000+0  41871-3 0  9993
2 44358  23.9995  53.4642 0000588  63.2844 296.7717 14.96180287371113
METEOR-M2 2             
1 44387U 19038A   26093.50218573  .00000501  00000+0  23660-3 0  9993
2 44387  98.9112  79.7009 0000587 171.6017 188.5172 14.24345291350660
COSMOS 2535             
1 44421U 19039A   26093.55858763  .00002035  00000+0  20687-3 0  9999
2 44421  97.5850 124.5581 0009989 100.2234 260.0112 14.91807984365517
GLOBAL-4                
1 44499U 19054E   26093.01158821  .00075495  00000+0  98615-3 0  9996
2 44499  45.0075 307.9419 0005679 203.1692 156.8947 15.57777035368617
ZY-1 02D                
1 44528U 19059A   26093.48560766  .00000593  00000+0  22107-3 0  9990
2 44528  98.3260 157.5929 0001658  36.6537 323.4762 14.35461962343627
TAURUS-1 (JINNIUZUO 1)  
1 44530U 19059C   26093.52176601  .00019584  00000+0  31727-2 0  9996
2 44530  98.6340 253.7928 0009399 180.0822 180.0383 14.71246010347660
ZHUHAI-1 03B            
1 44536U 19060C   26093.51997913  .00049157  00000+0  87789-3 0  9999
2 44536  97.5444 247.5401 0008949 225.7986 134.2530 15.49853705364748
ZHUHAI-1 03C            
1 44537U 19060D   26093.51103091  .00202007  00000+0  11958-2 0  9995
2 44537  97.5522 257.9237 0008976 188.7763 171.3347 15.77463947365384
ZHUHAI-1 03D            
1 44538U 19060E   26093.47899821  .00046043  00000+0  95726-3 0  9996
2 44538  97.5294 240.2786 0008360 210.7664 149.3096 15.45477692364526
ZHUHAI-1 03E            
1 44539U 19060F   26093.51084970  .00030342  00000+0  79720-3 0  9994
2 44539  97.5506 241.0581 0004954 288.6726  71.3980 15.38547542364275
ATLAS 5 CENTAUR DEB     
1 44694U 18079BG  26092.18824831 -.00000120  00000+0  00000+0 0  9998
2 44694  13.5439  45.5122 4741958 287.0060  27.7047  1.77433491 45212
GAOFEN-7                
1 44703U 19072A   26092.10252918  .00005110  00000+0  22915-3 0  9992
2 44703  97.2499 156.4038 0013570 305.0709  54.9254 15.21559511356072
